[{"OBJECT_NAME":"STARLINK-6209","OBJECT_ID":"2023-083B","EPOCH":"2026-03-09T09:38:15.697248","MEAN_MOTION":15.02533741,"ECCENTRICITY":0.00012814,"INCLINATION":43.0042,"RA_OF_ASC_NODE":83.6363,"ARG_OF_PERICENTER":266.0049,"MEAN_ANOMALY":94.0647,"EPHEMERIS_TYPE":0,"CLASSIFICATION_TYPE":"U","NORAD_CAT_ID":56877,"ELEMENT_SET_NO":999,"REV_AT_EPOCH":15162,"BSTAR":2.0343276e-5,"MEAN_MOTION_DOT":7.1e-7,"MEAN_MOTION_DDOT":0},{"OBJECT_NAME":"UNKNOWN","OBJECT_ID":"","EPOCH":"2026-03-09T06:40:17.770944","MEAN_MOTION":13.93999236,"ECCENTRICITY":0.0496409,"INCLINATION":63.0116,"RA_OF_ASC_NODE":359.5695,"ARG_OF_PERICENTER":301.9459,"MEAN_ANOMALY":53.4224,"EPHEMERIS_TYPE":0,"CLASSIFICATION_TYPE":"U","NORAD_CAT_ID":82205,"ELEMENT_SET_NO":999,"REV_AT_EPOCH":62006,"BSTAR":0.0010476,"MEAN_MOTION_DOT":3.786e-5,"MEAN_MOTION_DDOT":0}]
